ONEWEB-0389             
1 50469U 21132A   25365.60759058  .00000084  00000+0  18233-3 0  9995
2 50469  87.9093  39.1867 0002039 103.3217 256.8142 13.17649773196010
ONEWEB-0390             
1 50470U 21132B   25365.60926267  .00000048  00000+0  89965-4 0  9996
2 50470  87.9089  39.1876 0001486  99.5812 260.5488 13.17650049196012
ONEWEB-0391             
1 50471U 21132C   25365.61097670  .00000077  00000+0  16622-3 0  9996
2 50471  87.9088  39.1972 0002163 119.6962 240.4386 13.17648763196016
ONEWEB-0392             
1 50472U 21132D   25365.64133208 -.00000025  00000+0 -97353-4 0  9994
2 50472  87.9099  39.1450 0002027 105.8399 254.2956 13.17650246196059
ONEWEB-0393             
1 50473U 21132E   25365.61447201  .00000020  00000+0  17536-4 0  9991
2 50473  87.9101  39.1729 0001883 101.5190 258.6153 13.17649559196045
ONEWEB-0394             
1 50474U 21132F   25365.94190215  .00000064  00000+0  12942-3 0  9991
2 50474  87.9174   8.6487 0001885  92.9133 267.2215 13.18687732199550
ONEWEB-0395             
1 50475U 21132G   25365.69562819 -.00000296  00000+0 -87081-3 0  9992
2 50475  87.8830  54.4249 0001670 107.7786 252.3524 13.11414286193765
ONEWEB-0396             
1 50476U 21132H   25365.93531601  .00000077  00000+0  16228-3 0  9995
2 50476  87.9173   8.6621 0001817  92.0195 268.1146 13.18687608199594
ONEWEB-0397             
1 50477U 21132J   25365.57076666  .00000077  00000+0  16332-3 0  9997
2 50477  87.9172   8.7350 0001979  89.8163 270.3196 13.18684066199520
ONEWEB-0398             
1 50478U 21132K   25365.58713432  .00000530  00000+0  14602-2 0  9999
2 50478  87.8843  54.4212 0001427 109.5537 250.5745 13.11418477193644
ONEWEB-0399             
1 50479U 21132L   25365.64985741 -.00000072  00000+0 -23937-3 0  9996
2 50479  87.8838  54.4215 0002264 106.1427 253.9950 13.11417329193643
ONEWEB-0400             
1 50480U 21132M   25365.92870383  .00000089  00000+0  19358-3 0  9992
2 50480  87.9173   8.6535 0001555  93.4431 266.6879 13.18688070199567
ONEWEB-0401             
1 50481U 21132N   25365.51800493  .00000004  00000+0 -21987-4 0  9993
2 50481  87.9173   8.7319 0001890  84.6974 275.4374 13.18686268199515
ONEWEB-0402             
1 50482U 21132P   25365.93694074  .00000583  00000+0  14454-2 0  9996
2 50482  87.9169   8.6409 0002443  78.3236 281.8170 13.18698120199599
ONEWEB-0403             
1 50483U 21132Q   25365.58233133  .00000048  00000+0  89067-4 0  9993
2 50483  87.9174   8.7334 0001749  93.2363 266.8969 13.18686038199504
ONEWEB-0404             
1 50484U 21132R   25365.63119294 -.00000539  00000+0 -15569-2 0  9992
2 50484  87.8836  54.4345 0001998 108.9756 251.1589 13.11415544193734
ONEWEB-0405             
1 50485U 21132S   25365.52129933  .00000118  00000+0  26679-3 0  9998
2 50485  87.9174   8.7293 0001986  86.5879 273.5480 13.18686596199894
ONEWEB-0406             
1 50486U 21132T   25365.58727347  .00000061  00000+0  12187-3 0  9994
2 50486  87.9174   8.7414 0001696 107.1812 252.9506 13.18686814199539
ONEWEB-0407             
1 50487U 21132U   25365.58067363  .00000040  00000+0  69887-4 0  9997
2 50487  87.9173   8.7264 0001731  83.9076 276.2253 13.18687005199479
ONEWEB-0409             
1 50488U 21132V   25365.62949839 -.00000528  00000+0 -15249-2 0  9994
2 50488  87.8855  54.4069 0001792 112.4038 247.7280 13.11414764193627
ONEWEB-0412             
1 50489U 21132W   25365.56911427  .00000061  00000+0  12230-3 0  9998
2 50489  87.9175   8.7416 0002031  83.4794 276.6569 13.18687642199569
ONEWEB-0413             
1 50490U 21132X   25365.57409127 -.00000052  00000+0 -16484-3 0  9997
2 50490  87.9165   8.7519 0001924  80.7736 279.3613 13.18685342199509
ONEWEB-0414             
1 50491U 21132Y   25365.93860368  .00000002  00000+0 -27308-4 0  9998
2 50491  87.9175   8.6440 0001957  89.5312 270.6044 13.18687881199586
ONEWEB-0417             
1 50492U 21132Z   25365.56747557  .00000033  00000+0  51159-4 0  9996
2 50492  87.9170   8.7515 0001789  97.4082 262.7253 13.18687142199518
ONEWEB-0418             
1 50493U 21132AA  25365.57723782  .00000040  00000+0  69590-4 0  9998
2 50493  87.9172   8.7344 0001873 105.6439 254.4900 13.18686668199578
ONEWEB-0419             
1 50494U 21132AB  25365.51963951 -.00000038  00000+0 -13008-3 0  9998
2 50494  87.9174   8.7458 0001583 100.3860 259.7450 13.18687408199486
ONEWEB-0420             
1 50495U 21132AC  25365.56088416 -.00000014  00000+0 -69099-4 0  9994
2 50495  87.9175   8.7498 0001689  83.6572 276.4753 13.18686769199483
ONEWEB-0421             
1 50496U 21132AD  25365.93367118  .00000100  00000+0  22029-3 0  9990
2 50496  87.9173   8.6680 0002045  88.0618 272.0748 13.18686913199578
ONEWEB-0424             
1 50497U 21132AE  25365.96994566  .00000064  00000+0  12859-3 0  9996
2 50497  87.9173   8.6562 0001401  97.6721 262.4570 13.18687916199608
ONEWEB-0426             
1 50498U 21132AF  25365.93036012  .00000082  00000+0  17480-3 0  9992
2 50498  87.9175   8.6556 0002376  97.1036 263.0366 13.18684861199549
ONEWEB-0427             
1 50499U 21132AG  25365.96831637  .00000049  00000+0  91491-4 0  9990
2 50499  87.9171   8.6354 0001797  97.9152 262.2184 13.18686448199570
ONEWEB-0429             
1 50500U 21132AH  25365.57572489  .00000010  00000+0 -65911-5 0  9995
2 50500  87.9174   8.7462 0001694  84.8538 275.2788 13.18686748199494
ONEWEB-0430             
1 50501U 21132AJ  25365.56417095  .00000102  00000+0  22685-3 0  9996
2 50501  87.9175   8.7440 0001469  87.1190 273.0111 13.18684929199532
ONEWEB-0432             
1 50502U 21132AK  25365.52034825  .00000072  00000+0  15017-3 0  9996
2 50502  87.9170   8.7238 0001608 122.0409 238.0880 13.18678515199482
ONEWEB-0440             
1 50503U 21132AL  25365.50810144  .00000095  00000+0  20821-3 0  9995
2 50503  87.9173   8.7450 0002041  79.7151 280.4211 13.18687006199479
ONEWEB-0450             
1 50504U 21132AM  25365.57752706  .00000038  00000+0  62735-4 0  9990
2 50504  87.9167   8.7522 0001607  81.0222 279.1093 13.18686261199515
ONEWEB-0410             
1 51622U 22012A   25365.85395390 -.00000006  00000+0 -47529-4 0  9994
2 51622  87.9103  39.1108 0002878 118.7243 241.4178 13.17647154191668
ONEWEB-0411             
1 51623U 22012B   25365.71371340  .00000977  00000+0  27623-2 0  9995
2 51623  87.8785  69.6517 0001263 105.9254 254.2013 13.10385116187354
ONEWEB-0415             
1 51624U 22012C   25365.71041815  .00000710  00000+0  19971-2 0  9999
2 51624  87.8790  69.6546 0001389 103.0191 257.1092 13.10374063187359
ONEWEB-0416             
1 51625U 22012D   25365.72203070  .00000533  00000+0  14904-2 0  9998
2 51625  87.8786  69.6736 0001484 117.9744 242.1534 13.10370251187394
ONEWEB-0422             
1 51626U 22012E   25365.63628572  .00000066  00000+0  13653-3 0  9999
2 51626  87.9099  39.1575 0001853  74.2421 285.8915 13.17649811191742
ONEWEB-0423             
1 51627U 22012F   25365.62953946  .00000033  00000+0  50767-4 0  9997
2 51627  87.9096  39.1683 0001863  91.5109 268.6236 13.17649295191635
ONEWEB-0425             
1 51628U 22012G   25365.73199655 -.00002030  00000+0 -58533-2 0  9997
2 51628  87.8797  69.6443 0002286 105.7816 254.3563 13.10381668187391
ONEWEB-0428             
1 51629U 22012H   25365.71207638  .00000610  00000+0  17100-2 0  9992
2 51629  87.8792  69.6655 0001712 100.7439 259.3882 13.10373023187352
ONEWEB-0431             
1 51630U 22012J   25365.68202733 -.00000673  00000+0 -19630-2 0  9992
2 51630  87.8801  69.6525 0001084  95.9507 264.1744 13.10373868187408
ONEWEB-0434             
1 51631U 22012K   25365.73543790 -.00000249  00000+0 -74878-3 0  9995
2 51631  87.8784  69.6764 0002368 109.1808 250.9576 13.10368919187397
ONEWEB-0435             
1 51632U 22012L   25365.74358625 -.00000574  00000+0 -16820-2 0  9991
2 51632  87.8787  69.6649 0001698  88.9374 271.1948 13.10370037187381
ONEWEB-0436             
1 51633U 22012M   25365.46922783  .00000051  00000+0  97609-4 0  9997
2 51633  87.9099  39.1790 0001635  88.6812 271.4507 13.17649373191594
ONEWEB-0438             
1 51634U 22012N   25365.72700801  .00000159  00000+0  41953-3 0  9991
2 51634  87.8785  69.6691 0001912 106.9011 253.2326 13.10369300187412
ONEWEB-0439             
1 51635U 22012P   25365.73031866 -.00000016  00000+0 -81435-4 0  9995
2 51635  87.8785  69.6570 0001795 100.5361 259.5969 13.10368249187396
ONEWEB-0442             
1 51636U 22012Q   25365.61350474  .00000023  00000+0  26267-4 0  9990
2 51636  87.9089  39.1960 0002052 111.6672 248.4678 13.17647594191608
ONEWEB-0443             
1 51637U 22012R   25365.63291046 -.00000018  00000+0 -78960-4 0  9995
2 51637  87.9084  39.1963 0002129  96.2379 263.8996 13.17649136191657
ONEWEB-0444             
1 51638U 22012S   25365.72037220  .00000629  00000+0  17669-2 0  9991
2 51638  87.8786  69.6577 0001699 100.4221 259.7098 13.10370634187402
ONEWEB-0445             
1 51639U 22012T   25365.74191282 -.00000528  00000+0 -15498-2 0  9991
2 51639  87.8802  69.6235 0001634 110.3417 249.7886 13.10368994187410
ONEWEB-0446             
1 51640U 22012U   25365.71871432  .00000451  00000+0  12569-2 0  9991
2 51640  87.8791  69.6746 0001675 107.1840 252.9471 13.10373742187395
ONEWEB-0448             
1 51641U 22012V   25365.72368437  .00000421  00000+0  11702-2 0  9994
2 51641  87.8781  69.6727 0001754 101.7311 258.4013 13.10371226187360
ONEWEB-0449             
1 51642U 22012W   25365.72866021  .00000074  00000+0  17496-3 0  9998
2 51642  87.8787  69.6452 0002201 107.9133 252.2234 13.10368554187378
ONEWEB-0451             
1 51643U 22012X   25365.61772620  .00000056  00000+0  10993-3 0  9993
2 51643  87.9098  39.1447 0001866  97.6211 262.5132 13.17648435191595
ONEWEB-0452             
1 51644U 22012Y   25365.61601758  .00000008  00000+0 -11872-4 0  9993
2 51644  87.9088  39.1979 0002086  94.8235 265.3135 13.17646798191601
